{
    "links": {
        "self": "http://www.neowsapp.com/rest/v1/neo/3379897?api_key=iIulBulltgU6a56xZRHN4H3l9WmuAYTsLGpBGhQ2"
    },
    "id": "3379897",
    "neo_reference_id": "3379897",
    "name": "(2007 OH3)",
    "designation": "2007 OH3",
    "nasa_jpl_url": "http://ssd.jpl.nasa.gov/sbdb.cgi?sstr=3379897",
    "absolute_magnitude_h": 24.4,
    "estimated_diameter": {
        "kilometers": {
            "estimated_diameter_min": 0.0350392641,
            "estimated_diameter_max": 0.0783501764
        },
        "meters": {
            "estimated_diameter_min": 35.0392641108,
            "estimated_diameter_max": 78.3501764334
        },
        "miles": {
            "estimated_diameter_min": 0.0217723826,
            "estimated_diameter_max": 0.0486845275
        },
        "feet": {
            "estimated_diameter_min": 114.9582192654,
            "estimated_diameter_max": 257.0543928497
        }
    },
    "is_potentially_hazardous_asteroid": false,
    "close_approach_data": [
        {
            "close_approach_date": "2007-07-20",
            "close_approach_date_full": "2007-Jul-20 02:05",
            "epoch_date_close_approach": 1184897100000,
            "relative_velocity": {
                "kilometers_per_second": "7.4672201327",
                "kilometers_per_hour": "26881.9924777744",
                "miles_per_hour": "16703.4247148704"
            },
            "miss_distance": {
                "astronomical": "0.0340606499",
                "lunar": "13.2495928111",
                "kilometers": "5095400.675855713",
                "miles": "3166135.1643383194"
            },
            "orbiting_body": "Earth"
        }
    ],
    "orbital_data": {
        "orbit_id": "14",
        "orbit_determination_date": "2017-04-06 09:06:16",
        "first_observation_date": "2007-07-20",
        "last_observation_date": "2007-09-03",
        "data_arc_in_days": 45,
        "observations_used": 74,
        "orbit_uncertainty": "7",
        "minimum_orbit_intersection": ".0341218",
        "jupiter_tisserand_invariant": "3.746",
        "epoch_osculation": "2459000.5",
        "eccentricity": ".4611837228647544",
        "semi_major_axis": "1.947624175005943",
        "inclination": "8.305989980768686",
        "ascending_node_longitude": "296.3546746895111",
        "orbital_period": "992.7871831325117",
        "perihelion_distance": "1.049411607235306",
        "perihelion_argument": "3.906185703246036",
        "aphelion_distance": "2.84583674277658",
        "perihelion_time": "2459269.876765224522",
        "mean_anomaly": "262.3198152348787",
        "mean_motion": ".3626154790436585",
        "equinox": "J2000",
        "orbit_class": {
            "orbit_class_type": "AMO",
            "orbit_class_description": "Near-Earth asteroid orbits similar to that of 1221 Amor",
            "orbit_class_range": "1.017 AU < q (perihelion) < 1.3 AU"
        }
    },
    "is_sentry_object": false
}